0 COSMOS 886 DEB
1 09655U 76126M   13281.53583933  .00001896  00000-0  40512-3 0  1857
2 09655 065.7941 321.0720 0765130 158.4193 000.8112 13.54822423756326
0 COSMOS 886 DEB
1 09655U 76126M   13284.17480688  .00002053  00000-0  43718-3 0  1861
2 09655 065.7941 314.6892 0764838 157.1676 272.0816 13.54838255756683
0 COSMOS 886 DEB
1 09655U 76126M   13286.54062623  .00001765  00000-0  37978-3 0  1870
2 09655 065.7934 308.9674 0764555 156.0442 291.2059 13.54845862757005
0 COSMOS 886 DEB
1 09655U 76126M   13288.68612391  .00002221  00000-0  47217-3 0  1886
2 09655 065.7929 303.7779 0764310 155.0209 315.7895 13.54857715757298
0 COSMOS 886 DEB
1 09655U 76126M   13291.03319132  .00001757  00000-0  37886-3 0  1891
2 09655 065.7929 298.1003 0764089 153.9026 243.6157 13.54866179757612
0 COSMOS 886 DEB
1 09655U 76126M   13293.18365132  .00002123  00000-0  45313-3 0  1904
2 09655 065.7933 292.8982 0763916 152.8794 292.5573 13.54870829757906
0 COSMOS 886 DEB
1 09655U 76126M   13295.47254898  .00001775  00000-0  38349-3 0  1918
2 09655 065.7930 287.3603 0763563 151.7877 296.7747 13.54882076758211
